COMMENT,ORIGINATOR,NORAD_CAT_ID,OBJECT_NAME,OBJECT_TYPE,CLASSIFICATION_TYPE,INTLDES,EPOCH,EPOCH_MICROSECONDS,MEAN_MOTION,ECCENTRICITY,INCLINATION,RA_OF_ASC_NODE,ARG_OF_PERICENTER,MEAN_ANOMALY,EPHEMERIS_TYPE,ELEMENT_SET_NO,REV_AT_EPOCH,BSTAR,MEAN_MOTION_DOT,MEAN_MOTION_DDOT,FILE,TLE_LINE0,TLE_LINE1,TLE_LINE2,OBJECT_ID,OBJECT_NUMBER,SEMIMAJOR_AXIS,PERIOD,APOGEE,PERIGEE,DECAYED
"GENERATED VIA SPACETRACK.ORG API","18 SPCS","55097","SPACEBEE-160","PAYLOAD","U","23001CS","2023-09-06 10:02:58","251264","15.22921121","0.0015448","97.4684","308.9372","82.2132","278.0858","0","999","3745","0.00085244","0.00020028","0","3999158","0 SPACEBEE-160","1 55097U 23001CS  23249.41872976  .00020028  00000-0  85244-3 0  9994","2 55097  97.4684 308.9372 0015448  82.2132 278.0858 15.22921121 37451","2023-001CS","55097","6875.172","94.555","507.658","486.416","0"
"GENERATED VIA SPACETRACK.ORG API","18 SPCS","55097","SPACEBEE-160","PAYLOAD","U","23001CS","2023-09-07 09:42:11","358432","15.22959155","0.0015328","97.4685","309.9172","78.9426","281.3533","0","999","3760","0.00091596","0.00021554","0","4000013","0 SPACEBEE-160","1 55097U 23001CS  23250.40429813  .00021554  00000-0  91596-3 0  9995","2 55097  97.4685 309.9172 0015328  78.9426 281.3533 15.22959155 37608","2023-001CS","55097","6875.058","94.553","507.461","486.384","0"
"GENERATED VIA SPACETRACK.ORG API","18 SPCS","55097","SPACEBEE-160","PAYLOAD","U","23001CS","2023-09-07 09:42:11","358432","15.22959155","0.0015328","97.4685","309.9172","78.9426","281.3533","0","999","3760","0.00091596","0.00021554","0","4000037","0 SPACEBEE-160","1 55097U 23001CS  23250.40429813  .00021554  00000-0  91596-3 0  9995","2 55097  97.4685 309.9172 0015328  78.9426 281.3533 15.22959155 37608","2023-001CS","55097","6875.058","94.553","507.461","486.384","0"
"GENERATED VIA SPACETRACK.ORG API","18 SPCS","55097","SPACEBEE-160","PAYLOAD","U","23001CS","2023-09-07 14:26:01","745376","15.22965971","0.0015297","97.4686","310.1133","78.1524","282.1428","0","999","3763","0.00089736","0.00021117","0","4000222","0 SPACEBEE-160","1 55097U 23001CS  23250.60140909  .00021117  00000-0  89736-3 0  9991","2 55097  97.4686 310.1133 0015297  78.1524 282.1428 15.22965971 37634","2023-001CS","55097","6875.037","94.552","507.419","486.385","0"
"GENERATED VIA SPACETRACK.ORG API","18 SPCS","55097","SPACEBEE-160","PAYLOAD","U","23001CS","2023-09-08 03:02:55","618368","15.22990572","0.0015252","97.4687","310.6359","76.3749","283.9185","0","999","3771","0.0010422","0.00024566","0","4000854","0 SPACEBEE-160","1 55097U 23001CS  23251.12703262  .00024566  00000-0  10422-2 0  9992","2 55097  97.4687 310.6359 0015252  76.3749 283.9185 15.22990572 37713","2023-001CS","55097","6874.963","94.551","507.314","486.342","0"
"GENERATED VIA SPACETRACK.ORG API","18 SPCS","55097","SPACEBEE-160","PAYLOAD","U","23001CS","2023-09-08 17:14:25","599840","15.23006099","0.001522","97.4687","311.2238","74.6322","285.6595","0","999","3780","0.00081159","0.00019109","0","4001148","0 SPACEBEE-160","1 55097U 23001CS  23251.71835185  .00019109  00000-0  81159-3 0  9990","2 55097  97.4687 311.2238 0015220  74.6322 285.6595 15.23006099 37806","2023-001CS","55097","6874.916","94.550","507.245","486.318","0"
"GENERATED VIA SPACETRACK.ORG API","18 SPCS","55097","SPACEBEE-160","PAYLOAD","U","23001CS","2023-09-08 17:14:25","599840","15.23006099","0.001522","97.4687","311.2238","74.6322","285.6595","0","999","3780","0.00081159","0.00019109","0","4001154","0 SPACEBEE-160","1 55097U 23001CS  23251.71835185  .00019109  00000-0  81159-3 0  9990","2 55097  97.4687 311.2238 0015220  74.6322 285.6595 15.23006099 37806","2023-001CS","55097","6874.916","94.550","507.245","486.318","0"
"GENERATED VIA SPACETRACK.ORG API","18 SPCS","55097","SPACEBEE-160","PAYLOAD","U","23001CS","2023-09-09 09:00:31","198176","15.23035482","0.0015127","97.4686","311.877","72.6593","287.6297","0","999","3790","0.00095489","0.00022524","0","4001770","0 SPACEBEE-160","1 55097U 23001CS  23252.37536109  .00022524  00000-0  95489-3 0  9993","2 55097  97.4686 311.8770 0015127  72.6593 287.6297 15.23035482 37906","2023-001CS","55097","6874.828","94.548","507.092","486.293","0"
"GENERATED VIA SPACETRACK.ORG API","18 SPCS","55097","SPACEBEE-160","PAYLOAD","U","23001CS","2023-09-10 02:21:12","198240","15.23067716","0.0015149","97.4688","312.5959","70.3495","289.9375","0","999","3801","0.0010099","0.00023853","0","4002317","0 SPACEBEE-160","1 55097U 23001CS  23253.09805785  .00023853  00000-0  10099-2 0  9991","2 55097  97.4688 312.5959 0015149  70.3495 289.9375 15.23067716 38015","2023-001CS","55097","6874.731","94.546","507.010","486.181","0"
"GENERATED VIA SPACETRACK.ORG API","18 SPCS","55097","SPACEBEE-160","PAYLOAD","U","23001CS","2023-09-10 03:55:48","597888","15.23067653","0.0015136","97.4688","312.6611","70.1738","290.1128","0","999","3802","0.00086372","0.00020381","0","4002632","0 SPACEBEE-160","1 55097U 23001CS  23253.16375692  .00020381  00000-0  86372-3 0  9999","2 55097  97.4688 312.6611 0015136  70.1738 290.1128 15.23067653 38026","2023-001CS","55097","6874.731","94.546","507.002","486.190","0"
"GENERATED VIA SPACETRACK.ORG API","18 SPCS","55097","SPACEBEE-160","PAYLOAD","U","23001CS","2023-09-11 03:34:53","295744","15.23107845","0.0015049","97.4686","313.6414","66.9142","293.3679","0","999","3817","0.00087295","0.00020624","0","4003491","0 SPACEBEE-160","1 55097U 23001CS  23254.14922796  .00020624  00000-0  87295-3 0  9996","2 55097  97.4686 313.6414 0015049  66.9142 293.3679 15.23107845 38171","2023-001CS","55097","6874.610","94.544","506.821","486.129","0"
"GENERATED VIA SPACETRACK.ORG API","18 SPCS","55097","SPACEBEE-160","PAYLOAD","U","23001CS","2023-09-11 03:34:53","295744","15.23107845","0.0015049","97.4686","313.6414","66.9142","293.3679","0","999","3817","0.00087295","0.00020624","0","4003535","0 SPACEBEE-160","1 55097U 23001CS  23254.14922796  .00020624  00000-0  87295-3 0  9996","2 55097  97.4686 313.6414 0015049  66.9142 293.3679 15.23107845 38171","2023-001CS","55097","6874.610","94.544","506.821","486.129","0"
"GENERATED VIA SPACETRACK.ORG API","18 SPCS","55097","SPACEBEE-160","PAYLOAD","U","23001CS","2023-09-12 09:32:19","931424","15.23162617","0.0014869","97.4684","314.8829","62.6831","297.5917","0","999","3836","0.00098567","0.00023341","0","4004403","0 SPACEBEE-160","1 55097U 23001CS  23255.39745291  .00023341  00000-0  98567-3 0  9990","2 55097  97.4684 314.8829 0014869  62.6831 297.5917 15.23162617 38369","2023-001CS","55097","6874.445","94.540","506.532","486.089","0"
"GENERATED VIA SPACETRACK.ORG API","18 SPCS","55097","SPACEBEE-160","PAYLOAD","U","23001CS","2023-09-12 09:32:19","931424","15.23162617","0.0014869","97.4684","314.8829","62.6831","297.5917","0","999","3836","0.00098567","0.00023341","0","4004425","0 SPACEBEE-160","1 55097U 23001CS  23255.39745291  .00023341  00000-0  98567-3 0  9990","2 55097  97.4684 314.8829 0014869  62.6831 297.5917 15.23162617 38369","2023-001CS","55097","6874.445","94.540","506.532","486.089","0"
"GENERATED VIA SPACETRACK.ORG API","18 SPCS","55097","SPACEBEE-160","PAYLOAD","U","23001CS","2023-09-12 17:25:19","955424","15.23179381","0.001485","97.4684","315.2097","61.6096","298.6636","0","999","3841","0.0010474","0.00024824","0","4004701","0 SPACEBEE-160","1 55097U 23001CS  23255.72592541  .00024824  00000-0  10474-2 0  9992","2 55097  97.4684 315.2097 0014850  61.6096 298.6636 15.23179381 38415","2023-001CS","55097","6874.395","94.539","506.468","486.051","0"
"GENERATED VIA SPACETRACK.ORG API","18 SPCS","55097","SPACEBEE-160","PAYLOAD","U","23001CS","2023-09-13 02:52:55","312032","15.2321252","0.0014836","97.4683","315.6021","59.9948","300.2759","0","999","3847","0.0014572","0.00034643","0","4005006","0 SPACEBEE-160","1 55097U 23001CS  23256.12008463  .00034643  00000-0  14572-2 0  9995","2 55097  97.4683 315.6021 0014836  59.9948 300.2759 15.23212520 38470","2023-001CS","55097","6874.295","94.537","506.359","485.961","0"
"GENERATED VIA SPACETRACK.ORG API","18 SPCS","55097","SPACEBEE-160","PAYLOAD","U","23001CS","2023-09-13 02:52:55","312032","15.2321252","0.0014836","97.4683","315.6021","59.9948","300.2759","0","999","3847","0.0014572","0.00034643","0","4005353","0 SPACEBEE-160","1 55097U 23001CS  23256.12008463  .00034643  00000-0  14572-2 0  9995","2 55097  97.4683 315.6021 0014836  59.9948 300.2759 15.23212520 38470","2023-001CS","55097","6874.295","94.537","506.359","485.961","0"
"GENERATED VIA SPACETRACK.ORG API","18 SPCS","55097","SPACEBEE-160","PAYLOAD","U","23001CS","2023-09-13 17:04:17","341248","15.23249286","0.0014811","97.4683","316.1901","58.2013","302.0664","0","999","3856","0.0012624","0.00030016","0","4005648","0 SPACEBEE-160","1 55097U 23001CS  23256.71131182  .00030016  00000-0  12624-2 0  9991","2 55097  97.4683 316.1901 0014811  58.2013 302.0664 15.23249286 38565","2023-001CS","55097","6874.185","94.535","506.231","485.868","0"
"GENERATED VIA SPACETRACK.ORG API","18 SPCS","55097","SPACEBEE-160","PAYLOAD","U","23001CS","2023-09-14 02:31:51","409632","15.23268653","0.0014831","97.4682","316.5823","56.7242","303.5414","0","999","3862","0.0011103","0.00026394","0","4005987","0 SPACEBEE-160","1 55097U 23001CS  23257.10545613  .00026394  00000-0  11103-2 0  9998","2 55097  97.4682 316.5823 0014831  56.7242 303.5414 15.23268653 38625","2023-001CS","55097","6874.126","94.534","506.186","485.796","0"
"GENERATED VIA SPACETRACK.ORG API","18 SPCS","55097","SPACEBEE-160","PAYLOAD","U","23001CS","2023-09-14 04:06:27","49824","15.23272024","0.0014817","97.4681","316.6477","56.5299","303.7352","0","999","3863","0.0011028","0.00026217","0","4006374","0 SPACEBEE-160","1 55097U 23001CS  23257.17114641  .00026217  00000-0  11028-2 0  9998","2 55097  97.4681 316.6477 0014817  56.5299 303.7352 15.23272024 38635","2023-001CS","55097","6874.116","94.533","506.166","485.796","0"
